STARLINK-35694          
1 66389U 25257K   25324.29183487 -.00483911  00000+0 -24516-2 0  9998
2 66389  53.1529  12.3345 0001196 341.4843  18.6136 15.82033316  2886
STARLINK-35665          
1 66390U 25257L   25324.15801181  .00502481  00000+0  21753-2 0  9995
2 66390  53.1524  12.9191 0005178 204.4266 155.6513 15.83025546  2966
STARLINK-35656          
1 66391U 25257M   25324.26495871 -.00705613  00000+0 -28425-2 0  9990
2 66391  53.1533  12.1529 0001585  29.3319 330.7795 15.87305622  2985
STARLINK-35671          
1 66392U 25257N   25324.29095648 -.00474836  00000+0 -24131-2 0  9992
2 66392  53.1527  12.3288 0003627 335.1144  24.9703 15.81925694  2887
STARLINK-35652          
1 66393U 25257P   25324.29139717 -.00462304  00000+0 -23376-2 0  9996
2 66393  53.1527  12.3316 0001088 350.8147   9.2856 15.82021446  2884
STARLINK-35672          
1 66394U 25257Q   25324.00003472 -.01569060  00000+0 -84076-2 0  9996
2 66394  53.1527  13.7839 0000863  89.8393  54.8326 15.82479886  2841
STARLINK-35681          
1 66395U 25257R   25324.29008791 -.00408331  00000+0 -20616-2 0  9999
2 66395  53.1530  12.3229 0003795 341.4734  18.6151 15.81898005  2815
STARLINK-35669          
1 66396U 25257S   25324.00003472 -.01584204  00000+0 -85145-2 0  9993
2 66396  53.1527  13.7739 0001093  85.4870  63.8615 15.82442599  2842
STARLINK-35510          
1 66397U 25257T   25324.22584731 -.00612181  00000+0 -31685-2 0  9995
2 66397  53.1524  12.6322 0001092  34.6539 325.4555 15.81895565  2870
STARLINK-35642          
1 66398U 25257U   25324.28868883 -.00448291  00000+0 -22910-2 0  9995
2 66398  53.1525  12.3125 0003933 341.2694  18.8184 15.81736494  2882
STARLINK-35657          
1 66399U 25257V   25324.09880223 -.06060310  00000+0 -38386-1 0  9998
2 66399  53.1533  13.2621 0025405 357.8315   2.2593 15.79595688  2857
STARLINK-35667          
1 66400U 25257W   25324.22430571 -.00646541  00000+0 -33650-2 0  9993
2 66400  53.1527  12.6220 0001900  51.0143 309.1049 15.81855612  2873
