CCSDS_OMM_VERS = 2.0
CREATION_DATE  = 
ORIGINATOR     = 

OBJECT_NAME    = STARLINK-35694
OBJECT_ID      = 2025-257K
CENTER_NAME    = EARTH
REF_FRAME      = TEME
TIME_SYSTEM    = UTC
MEAN_ELEMENT_THEORY = SGP/SGP4

EPOCH          = 2025-11-20T07:00:14.532768
MEAN_MOTION    = 15.82033316
ECCENTRICITY   = .00011968
INCLINATION    = 53.1529
RA_OF_ASC_NODE = 12.3345
ARG_OF_PERICENTER = 341.4843
MEAN_ANOMALY   = 18.6136

EPHEMERIS_TYPE = 0
CLASSIFICATION_TYPE = U
NORAD_CAT_ID   = 66389
ELEMENT_SET_NO = 999
REV_AT_EPOCH   = 288
BSTAR          = -.24515709E-2
MEAN_MOTION_DOT = -.483911E-2
MEAN_MOTION_DDOT = 0

CCSDS_OMM_VERS = 2.0
CREATION_DATE  = 
ORIGINATOR     = 

OBJECT_NAME    = STARLINK-35665
OBJECT_ID      = 2025-257L
CENTER_NAME    = EARTH
REF_FRAME      = TEME
TIME_SYSTEM    = UTC
MEAN_ELEMENT_THEORY = SGP/SGP4

EPOCH          = 2025-11-20T03:47:32.220384
MEAN_MOTION    = 15.83025546
ECCENTRICITY   = .00051787
INCLINATION    = 53.1524
RA_OF_ASC_NODE = 12.9191
ARG_OF_PERICENTER = 204.4266
MEAN_ANOMALY   = 155.6513

EPHEMERIS_TYPE = 0
CLASSIFICATION_TYPE = U
NORAD_CAT_ID   = 66390
ELEMENT_SET_NO = 999
REV_AT_EPOCH   = 296
BSTAR          = .21752804E-2
MEAN_MOTION_DOT = .502481E-2
MEAN_MOTION_DDOT = 0

CCSDS_OMM_VERS = 2.0
CREATION_DATE  = 
ORIGINATOR     = 

OBJECT_NAME    = STARLINK-35656
OBJECT_ID      = 2025-257M
CENTER_NAME    = EARTH
REF_FRAME      = TEME
TIME_SYSTEM    = UTC
MEAN_ELEMENT_THEORY = SGP/SGP4

EPOCH          = 2025-11-20T06:21:32.432544
MEAN_MOTION    = 15.87305622
ECCENTRICITY   = .00015858
INCLINATION    = 53.1533
RA_OF_ASC_NODE = 12.1529
ARG_OF_PERICENTER = 29.3319
MEAN_ANOMALY   = 330.7795

EPHEMERIS_TYPE = 0
CLASSIFICATION_TYPE = U
NORAD_CAT_ID   = 66391
ELEMENT_SET_NO = 999
REV_AT_EPOCH   = 298
BSTAR          = -.28425077E-2
MEAN_MOTION_DOT = -.705613E-2
MEAN_MOTION_DDOT = 0

CCSDS_OMM_VERS = 2.0
CREATION_DATE  = 
ORIGINATOR     = 

OBJECT_NAME    = STARLINK-35671
OBJECT_ID      = 2025-257N
CENTER_NAME    = EARTH
REF_FRAME      = TEME
TIME_SYSTEM    = UTC
MEAN_ELEMENT_THEORY = SGP/SGP4

EPOCH          = 2025-11-20T06:58:58.639872
MEAN_MOTION    = 15.81925694
ECCENTRICITY   = .00036275
INCLINATION    = 53.1527
RA_OF_ASC_NODE = 12.3288
ARG_OF_PERICENTER = 335.1144
MEAN_ANOMALY   = 24.9703

EPHEMERIS_TYPE = 0
CLASSIFICATION_TYPE = U
NORAD_CAT_ID   = 66392
ELEMENT_SET_NO = 999
REV_AT_EPOCH   = 288
BSTAR          = -.24130648E-2
MEAN_MOTION_DOT = -.474836E-2
MEAN_MOTION_DDOT = 0

CCSDS_OMM_VERS = 2.0
CREATION_DATE  = 
ORIGINATOR     = 

OBJECT_NAME    = STARLINK-35652
OBJECT_ID      = 2025-257P
CENTER_NAME    = EARTH
REF_FRAME      = TEME
TIME_SYSTEM    = UTC
MEAN_ELEMENT_THEORY = SGP/SGP4

EPOCH          = 2025-11-20T06:59:36.715488
MEAN_MOTION    = 15.82021446
ECCENTRICITY   = .00010889
INCLINATION    = 53.1527
RA_OF_ASC_NODE = 12.3316
ARG_OF_PERICENTER = 350.8147
MEAN_ANOMALY   = 9.2856

EPHEMERIS_TYPE = 0
CLASSIFICATION_TYPE = U
NORAD_CAT_ID   = 66393
ELEMENT_SET_NO = 999
REV_AT_EPOCH   = 288
BSTAR          = -.23375689E-2
MEAN_MOTION_DOT = -.462304E-2
MEAN_MOTION_DDOT = 0

CCSDS_OMM_VERS = 2.0
CREATION_DATE  = 
ORIGINATOR     = 

OBJECT_NAME    = STARLINK-35672
OBJECT_ID      = 2025-257Q
CENTER_NAME    = EARTH
REF_FRAME      = TEME
TIME_SYSTEM    = UTC
MEAN_ELEMENT_THEORY = SGP/SGP4

EPOCH          = 2025-11-20T00:00:02.999808
MEAN_MOTION    = 15.82479886
ECCENTRICITY   = .00008633
INCLINATION    = 53.1527
RA_OF_ASC_NODE = 13.7839
ARG_OF_PERICENTER = 89.8393
MEAN_ANOMALY   = 54.8326

EPHEMERIS_TYPE = 0
CLASSIFICATION_TYPE = U
NORAD_CAT_ID   = 66394
ELEMENT_SET_NO = 999
REV_AT_EPOCH   = 284
BSTAR          = -.84076184E-2
MEAN_MOTION_DOT = -.156906E-1
MEAN_MOTION_DDOT = 0

CCSDS_OMM_VERS = 2.0
CREATION_DATE  = 
ORIGINATOR     = 

OBJECT_NAME    = STARLINK-35681
OBJECT_ID      = 2025-257R
CENTER_NAME    = EARTH
REF_FRAME      = TEME
TIME_SYSTEM    = UTC
MEAN_ELEMENT_THEORY = SGP/SGP4

EPOCH          = 2025-11-20T06:57:43.595424
MEAN_MOTION    = 15.81898005
ECCENTRICITY   = .00037956
INCLINATION    = 53.1530
RA_OF_ASC_NODE = 12.3229
ARG_OF_PERICENTER = 341.4734
MEAN_ANOMALY   = 18.6151

EPHEMERIS_TYPE = 0
CLASSIFICATION_TYPE = U
NORAD_CAT_ID   = 66395
ELEMENT_SET_NO = 999
REV_AT_EPOCH   = 281
BSTAR          = -.20616133E-2
MEAN_MOTION_DOT = -.408331E-2
MEAN_MOTION_DDOT = 0

CCSDS_OMM_VERS = 2.0
CREATION_DATE  = 
ORIGINATOR     = 

OBJECT_NAME    = STARLINK-35669
OBJECT_ID      = 2025-257S
CENTER_NAME    = EARTH
REF_FRAME      = TEME
TIME_SYSTEM    = UTC
MEAN_ELEMENT_THEORY = SGP/SGP4

EPOCH          = 2025-11-20T00:00:02.999808
MEAN_MOTION    = 15.82442599
ECCENTRICITY   = .00010935
INCLINATION    = 53.1527
RA_OF_ASC_NODE = 13.7739
ARG_OF_PERICENTER = 85.4870
MEAN_ANOMALY   = 63.8615

EPHEMERIS_TYPE = 0
CLASSIFICATION_TYPE = U
NORAD_CAT_ID   = 66396
ELEMENT_SET_NO = 999
REV_AT_EPOCH   = 284
BSTAR          = -.8514501E-2
MEAN_MOTION_DOT = -.1584204E-1
MEAN_MOTION_DDOT = 0

CCSDS_OMM_VERS = 2.0
CREATION_DATE  = 
ORIGINATOR     = 

OBJECT_NAME    = STARLINK-35510
OBJECT_ID      = 2025-257T
CENTER_NAME    = EARTH
REF_FRAME      = TEME
TIME_SYSTEM    = UTC
MEAN_ELEMENT_THEORY = SGP/SGP4

EPOCH          = 2025-11-20T05:25:13.207584
MEAN_MOTION    = 15.81895565
ECCENTRICITY   = .00010924
INCLINATION    = 53.1524
RA_OF_ASC_NODE = 12.6322
ARG_OF_PERICENTER = 34.6539
MEAN_ANOMALY   = 325.4555

EPHEMERIS_TYPE = 0
CLASSIFICATION_TYPE = U
NORAD_CAT_ID   = 66397
ELEMENT_SET_NO = 999
REV_AT_EPOCH   = 287
BSTAR          = -.31684796E-2
MEAN_MOTION_DOT = -.612181E-2
MEAN_MOTION_DDOT = 0

CCSDS_OMM_VERS = 2.0
CREATION_DATE  = 
ORIGINATOR     = 

OBJECT_NAME    = STARLINK-35642
OBJECT_ID      = 2025-257U
CENTER_NAME    = EARTH
REF_FRAME      = TEME
TIME_SYSTEM    = UTC
MEAN_ELEMENT_THEORY = SGP/SGP4

EPOCH          = 2025-11-20T06:55:42.714912
MEAN_MOTION    = 15.81736494
ECCENTRICITY   = .00039337
INCLINATION    = 53.1525
RA_OF_ASC_NODE = 12.3125
ARG_OF_PERICENTER = 341.2694
MEAN_ANOMALY   = 18.8184

EPHEMERIS_TYPE = 0
CLASSIFICATION_TYPE = U
NORAD_CAT_ID   = 66398
ELEMENT_SET_NO = 999
REV_AT_EPOCH   = 288
BSTAR          = -.22910434E-2
MEAN_MOTION_DOT = -.448291E-2
MEAN_MOTION_DDOT = 0

CCSDS_OMM_VERS = 2.0
CREATION_DATE  = 
ORIGINATOR     = 

OBJECT_NAME    = STARLINK-35657
OBJECT_ID      = 2025-257V
CENTER_NAME    = EARTH
REF_FRAME      = TEME
TIME_SYSTEM    = UTC
MEAN_ELEMENT_THEORY = SGP/SGP4

EPOCH          = 2025-11-20T02:22:16.512672
MEAN_MOTION    = 15.79595688
ECCENTRICITY   = .00254057
INCLINATION    = 53.1533
RA_OF_ASC_NODE = 13.2621
ARG_OF_PERICENTER = 357.8315
MEAN_ANOMALY   = 2.2593

EPHEMERIS_TYPE = 0
CLASSIFICATION_TYPE = U
NORAD_CAT_ID   = 66399
ELEMENT_SET_NO = 999
REV_AT_EPOCH   = 285
BSTAR          = -.38385918E-1
MEAN_MOTION_DOT = -.606031E-1
MEAN_MOTION_DDOT = 0

CCSDS_OMM_VERS = 2.0
CREATION_DATE  = 
ORIGINATOR     = 

OBJECT_NAME    = STARLINK-35667
OBJECT_ID      = 2025-257W
CENTER_NAME    = EARTH
REF_FRAME      = TEME
TIME_SYSTEM    = UTC
MEAN_ELEMENT_THEORY = SGP/SGP4

EPOCH          = 2025-11-20T05:23:00.013344
MEAN_MOTION    = 15.81855612
ECCENTRICITY   = .00019002
INCLINATION    = 53.1527
RA_OF_ASC_NODE = 12.6220
ARG_OF_PERICENTER = 51.0143
MEAN_ANOMALY   = 309.1049

EPHEMERIS_TYPE = 0
CLASSIFICATION_TYPE = U
NORAD_CAT_ID   = 66400
ELEMENT_SET_NO = 999
REV_AT_EPOCH   = 287
BSTAR          = -.33650112E-2
MEAN_MOTION_DOT = -.646541E-2
MEAN_MOTION_DDOT = 0

